[{"OBJECT_NAME":"TIANQI-6","OBJECT_ID":"2020-076D","EPOCH":"2026-03-09T22:50:24.728640","MEAN_MOTION":15.06417552,"ECCENTRICITY":0.00106023,"INCLINATION":34.9994,"RA_OF_ASC_NODE":297.1791,"ARG_OF_PERICENTER":9.4595,"MEAN_ANOMALY":350.6312,"EPHEMERIS_TYPE":0,"CLASSIFICATION_TYPE":"U","NORAD_CAT_ID":46810,"ELEMENT_SET_NO":999,"REV_AT_EPOCH":29360,"BSTAR":0.00037023286,"MEAN_MOTION_DOT":5.552e-5,"MEAN_MOTION_DDOT":0},{"OBJECT_NAME":"STARLINK-4327","OBJECT_ID":"2022-077AN","EPOCH":"2026-03-09T22:36:46.173312","MEAN_MOTION":15.05648622,"ECCENTRICITY":0.00023609,"INCLINATION":97.6022,"RA_OF_ASC_NODE":251.4886,"ARG_OF_PERICENTER":90.4217,"MEAN_ANOMALY":269.728,"EPHEMERIS_TYPE":0,"CLASSIFICATION_TYPE":"U","NORAD_CAT_ID":53079,"ELEMENT_SET_NO":999,"REV_AT_EPOCH":20102,"BSTAR":0.00030420672,"MEAN_MOTION_DOT":4.331e-5,"MEAN_MOTION_DDOT":0}]
